{
  "type": "FeatureCollection",
  "features": [
    {
      "type": "Feature",
      "properties": {
        "norad_id": 66909,
        "name": "SILVERSAT",
        "group": "stations",
        "lat": 8.267293603586749,
        "lon": 133.0465928187998,
        "alt_km": 412.008840897608,
        "timestamp": "2025-12-15T22:44:27.684369+00:00",
        "meta_object_name": "SILVERSAT",
        "meta_object_id": "1998-067XV",
        "meta_epoch": "2025-12-14T21:58:11.659008",
        "meta_mean_motion": 15.51959159,
        "meta_eccentricity": 0.00041685,
        "meta_inclination": 51.6297,
        "meta_ra_of_asc_node": 131.568,
        "meta_arg_of_pericenter": 239.8452,
        "meta_mean_anomaly": 120.2125,
        "meta_ephemeris_type": 0,
        "meta_classification_type": "U",
        "meta_norad_cat_id": 66909,
        "meta_element_set_no": 999,
        "meta_rev_at_epoch": 195,
        "meta_bstar": 0.00078463431,
        "meta_mean_motion_dot": 0.00047853,
        "meta_mean_motion_ddot": 0,
        "tle_line1": "1 66909U 98067XV  25348.91541272  .00047853  00000+0  78463-3 0  9990",
        "tle_line2": "2 66909  51.6297 131.5680 0004168 239.8452 120.2125 15.51959159  1956"
      },
      "geometry": {
        "type": "Point",
        "coordinates": [
          133.0465928187998,
          8.267293603586749
        ]
      }
    },
    {
      "type": "Feature",
      "properties": {
        "norad_id": 66910,
        "name": "1998-067XW",
        "group": "stations",
        "lat": 15.598069414339278,
        "lon": 139.1962752071256,
        "alt_km": 411.94110318961066,
        "timestamp": "2025-12-15T22:44:27.684379+00:00",
        "meta_object_name": "1998-067XW",
        "meta_object_id": "1998-067XW",
        "meta_epoch": "2025-12-15T02:33:59.321376",
        "meta_mean_motion": 15.52065863,
        "meta_eccentricity": 0.00048103,
        "meta_inclination": 51.6293,
        "meta_ra_of_asc_node": 130.5977,
        "meta_arg_of_pericenter": 220.6145,
        "meta_mean_anomaly": 139.4486,
        "meta_ephemeris_type": 0,
        "meta_classification_type": "U",
        "meta_norad_cat_id": 66910,
        "meta_element_set_no": 999,
        "meta_rev_at_epoch": 198,
        "meta_bstar": 0.00077673091,
        "meta_mean_motion_dot": 0.00047552,
        "meta_mean_motion_ddot": 0,
        "tle_line1": "1 66910U 98067XW  25349.10693659  .00047552  00000+0  77673-3 0  9999",
        "tle_line2": "2 66910  51.6293 130.5977 0004810 220.6145 139.4486 15.52065863  1989"
      },
      "geometry": {
        "type": "Point",
        "coordinates": [
          139.1962752071256,
          15.598069414339278
        ]
      }
    },
    {
      "type": "Feature",
      "properties": {
        "norad_id": 66911,
        "name": "1998-067XX",
        "group": "stations",
        "lat": 21.198555047924806,
        "lon": 144.29827361715147,
        "alt_km": 410.0079721692682,
        "timestamp": "2025-12-15T22:44:27.684390+00:00",
        "meta_object_name": "1998-067XX",
        "meta_object_id": "1998-067XX",
        "meta_epoch": "2025-12-15T02:32:19.891392",
        "meta_mean_motion": 15.5237976,
        "meta_eccentricity": 0.00045157,
        "meta_inclination": 51.6294,
        "meta_ra_of_asc_node": 130.59,
        "meta_arg_of_pericenter": 223.2403,
        "meta_mean_anomaly": 136.8232,
        "meta_ephemeris_type": 0,
        "meta_classification_type": "U",
        "meta_norad_cat_id": 66911,
        "meta_element_set_no": 999,
        "meta_rev_at_epoch": 197,
        "meta_bstar": 0.00090895834,
        "meta_mean_motion_dot": 0.00056424,
        "meta_mean_motion_ddot": 0,
        "tle_line1": "1 66911U 98067XX  25349.10578578  .00056424  00000+0  90896-3 0  9992",
        "tle_line2": "2 66911  51.6294 130.5900 0004515 223.2403 136.8232 15.52379760  1978"
      },
      "geometry": {
        "type": "Point",
        "coordinates": [
          144.29827361715147,
          21.198555047924806
        ]
      }
    },
    {
      "type": "Feature",
      "properties": {
        "norad_id": 66912,
        "name": "1998-067XY",
        "group": "stations",
        "lat": -4.0619096282281655,
        "lon": 123.24449436512826,
        "alt_km": 414.96772386486646,
        "timestamp": "2025-12-15T22:44:27.684401+00:00",
        "meta_object_name": "1998-067XY",
        "meta_object_id": "1998-067XY",
        "meta_epoch": "2025-12-15T02:39:57.579840",
        "meta_mean_motion": 15.51387757,
        "meta_eccentricity": 0.00042755,
        "meta_inclination": 51.63,
        "meta_ra_of_asc_node": 130.6254,
        "meta_arg_of_pericenter": 236.764,
        "meta_mean_anomaly": 123.294,
        "meta_ephemeris_type": 0,
        "meta_classification_type": "U",
        "meta_norad_cat_id": 66912,
        "meta_element_set_no": 999,
        "meta_rev_at_epoch": 197,
        "meta_bstar": 0.00062299922,
        "meta_mean_motion_dot": 0.00037074,
        "meta_mean_motion_ddot": 0,
        "tle_line1": "1 66912U 98067XY  25349.11108310  .00037074  00000+0  62300-3 0  9996",
        "tle_line2": "2 66912  51.6300 130.6254 0004275 236.7640 123.2940 15.51387757  1975"
      },
      "geometry": {
        "type": "Point",
        "coordinates": [
          123.24449436512826,
          -4.0619096282281655
        ]
      }
    }
  ]
}